[{"OBJECT_NAME":"STARLINK-5447","OBJECT_ID":"2022-175X","EPOCH":"2026-03-09T04:43:18.673824","MEAN_MOTION":15.08831851,"ECCENTRICITY":0.00012685,"INCLINATION":53.2191,"RA_OF_ASC_NODE":31.4361,"ARG_OF_PERICENTER":93.8484,"MEAN_ANOMALY":266.2653,"EPHEMERIS_TYPE":0,"CLASSIFICATION_TYPE":"U","NORAD_CAT_ID":54779,"ELEMENT_SET_NO":999,"REV_AT_EPOCH":18005,"BSTAR":-3.3152079e-5,"MEAN_MOTION_DOT":-8.15e-6,"MEAN_MOTION_DDOT":0},{"OBJECT_NAME":"FENGYUN 1C DEB","OBJECT_ID":"1999-025CSF","EPOCH":"2026-03-06T14:46:48.189792","MEAN_MOTION":14.83626867,"ECCENTRICITY":0.01812709,"INCLINATION":98.4497,"RA_OF_ASC_NODE":202.5264,"ARG_OF_PERICENTER":124.6228,"MEAN_ANOMALY":237.2229,"EPHEMERIS_TYPE":0,"CLASSIFICATION_TYPE":"U","NORAD_CAT_ID":32137,"ELEMENT_SET_NO":999,"REV_AT_EPOCH":67973,"BSTAR":0.0017939615,"MEAN_MOTION_DOT":0.00019795,"MEAN_MOTION_DDOT":0}]
